CTC2_L_00211016-03
1 74087U 25873RL  26037.47792824  .00000000  00000+0  00000-0 0  9991
2 74087  50.0000 180.0000 0000000   0.0000   0.0000 14.33516502    13
CTC2_L_00211016-04
1 74088U 25685RM  26037.47792824  .00000000  00000+0  00000-0 0  9993
2 74088  50.0000 180.0000 0000000   0.0000  90.0000 14.33516502    13
CTC2_L_00211017-01
1 74089U 24587QA  26037.47792824  .00000000  00000+0  00000-0 0  9994
2 74089  50.0000 192.0000 0000000   0.0000 192.0000 14.33516502    10
CTC2_L_00211017-02
1 74090U 22113YG  26037.47792824  .00000000  00000+0  00000-0 0  9999
2 74090  50.0000 192.0000 0000000   0.0000 282.0000 14.33516502    12
CTC2_L_00211017-03
1 74091U 26019VY  26037.47792824  .00000000  00000+0  00000-0 0  9999
2 74091  50.0000 192.0000 0000000   0.0000  12.0000 14.33516502    14
CTC2_L_00211017-04
1 74092U 25177UC  26037.47792824  .00000000  00000+0  00000-0 0  9994
2 74092  50.0000 192.0000 0000000   0.0000 102.0000 14.33516502    15
CTC2_L_00211018-01
1 74093U 22001XE  26037.47792824  .00000000  00000+0  00000-0 0  9998
2 74093  50.0000 204.0000 0000000   0.0000 204.0000 14.33516502    13
CTC2_L_00211018-02
1 74094U 22272KY  26037.47792824  .00000000  00000+0  00000-0 0  9999
2 74094  50.0000 204.0000 0000000   0.0000 294.0000 14.33516502    13
CTC2_L_00211018-03
1 74095U 22969LP  26037.47792824  .00000000  00000+0  00000-0 0  9993
2 74095  50.0000 204.0000 0000000   0.0000  24.0000 14.33516502    15
CTC2_L_00211018-04
1 74096U 24634OW  26037.47792824  .00000000  00000+0  00000-0 0  9995
2 74096  50.0000 204.0000 0000000   0.0000 114.0000 14.33516502    16
CTC2_L_00211019-01
1 74097U 25100CG  26037.47792824  .00000000  00000+0  00000-0 0  9995
2 74097  50.0000 216.0000 0000000   0.0000 216.0000 14.33516502    13
CTC2_L_00211019-02
1 74098U 25641BU  26037.47792824  .00000000  00000+0  00000-0 0  9996
2 74098  50.0000 216.0000 0000000   0.0000 306.0000 14.33516502    14
CTC2_L_00211019-03
1 74099U 22714VK  26037.47792824  .00000000  00000+0  00000-0 0  9995
2 74099  50.0000 216.0000 0000000   0.0000  36.0000 14.33516502    15
CTC2_L_00211019-04
1 74100U 26085VS  26037.47792824  .00000000  00000+0  00000-0 0  9993
2 74100  50.0000 216.0000 0000000   0.0000 126.0000 14.33516502    18
CTC2_L_00211020-01
1 74101U 23694JN  26037.47792824  .00000000  00000+0  00000-0 0  9997
2 74101  50.0000 228.0000 0000000   0.0000 228.0000 14.33516502    15
CTC2_L_00211020-02
1 74102U 24228EW  26037.47792824  .00000000  00000+0  00000-0 0  9992
2 74102  50.0000 228.0000 0000000   0.0000 318.0000 14.33516502    16
CTC2_L_00211020-03
1 74103U 24513KR  26037.47792824  .00000000  00000+0  00000-0 0  9990
2 74103  50.0000 228.0000 0000000   0.0000  48.0000 14.33516502    17
CTC2_L_00211020-04
1 74104U 25310JC  26037.47792824  .00000000  00000+0  00000-0 0  9997
2 74104  50.0000 228.0000 0000000   0.0000 138.0000 14.33516502    18
CTC2_L_00211021-01
1 74105U 26863PX  26037.47792824  .00000000  00000+0  00000-0 0  9992
2 74105  50.0000 240.0000 0000000   0.0000 240.0000 14.33516502    17
CTC2_L_00211021-02
1 74106U 23141LT  26037.47792824  .00000000  00000+0  00000-0 0  9999
2 74106  50.0000 240.0000 0000000   0.0000 330.0000 14.33516502    18
CTC2_L_00211021-03
1 74107U 22103GB  26037.47792824  .00000000  00000+0  00000-0 0  9997
2 74107  50.0000 240.0000 0000000   0.0000  60.0000 14.33516502    19
CTC2_L_00211021-04
1 74108U 24218ET  26037.47792824  .00000000  00000+0  00000-0 0  9997
2 74108  50.0000 240.0000 0000000   0.0000 150.0000 14.33516502    10
CTC2_L_00211022-01
1 74109U 26599SQ  26037.47792824  .00000000  00000+0  00000-0 0  9992
2 74109  50.0000 252.0000 0000000   0.0000 252.0000 14.33516502    17
CTC2_L_00211022-02
1 74110U 24224QD  26037.47792824  .00000000  00000+0  00000-0 0  9997
2 74110  50.0000 252.0000 0000000   0.0000 342.0000 14.33516502    19
CTC2_L_00211022-03
1 74111U 25319CF  26037.47792824  .00000000  00000+0  00000-0 0  9994
2 74111  50.0000 252.0000 0000000   0.0000  72.0000 14.33516502    10
CTC2_L_00211022-04
1 74112U 26614LL  26037.47792824  .00000000  00000+0  00000-0 0  9994
2 74112  50.0000 252.0000 0000000   0.0000 162.0000 14.33516502    11
CTC2_L_00211023-01
1 74113U 22845OG  26037.47792824  .00000000  00000+0  00000-0 0  9997
2 74113  50.0000 264.0000 0000000   0.0000 264.0000 14.33516502    18
CTC2_L_00211023-02
1 74114U 22157Z   26037.47792824  .00000000  00000+0  00000-0 0  9994
2 74114  50.0000 264.0000 0000000   0.0000 354.0000 14.33516502    19
CTC2_L_00211023-03
1 74115U 24666PV  26037.47792824  .00000000  00000+0  00000-0 0  9992
2 74115  50.0000 264.0000 0000000   0.0000  84.0000 14.33516502    10
CTC2_L_00211023-04
1 74116U 22196RZ  26037.47792824  .00000000  00000+0  00000-0 0  9999
2 74116  50.0000 264.0000 0000000   0.0000 174.0000 14.33516502    11
CTC2_L_00211024-01
1 74117U 24049EV  26037.47792824  .00000000  00000+0  00000-0 0  9999
2 74117  50.0000 276.0000 0000000   0.0000 276.0000 14.33516502    18
CTC2_L_00211024-02
1 74118U 26038A   26037.47792824  .00000000  00000+0  00000-0 0  9990
2 74118  50.0000 276.0000 0000000   0.0000   6.0000 14.33516502    10
CTC2_L_00211024-03
1 74119U 22528BX  26037.47792824  .00000000  00000+0  00000-0 0  9991
2 74119  50.0000 276.0000 0000000   0.0000  96.0000 14.33516502    10
CTC2_L_00211024-04
1 74120U 22282JY  26037.47792824  .00000000  00000+0  00000-0 0  9990
2 74120  50.0000 276.0000 0000000   0.0000 186.0000 14.33516502    12
CTC2_L_00211025-01
1 74121U 26384TY  26037.47792824  .00000000  00000+0  00000-0 0  9998
2 74121  50.0000 288.0000 0000000   0.0000 288.0000 14.33516502    19
CTC2_L_00211025-02
1 74122U 24597Y   26037.47792824  .00000000  00000+0  00000-0 0  9993
2 74122  50.0000 288.0000 0000000   0.0000  18.0000 14.33516502    11
CTC2_L_00211025-03
1 74123U 22192NH  26037.47792824  .00000000  00000+0  00000-0 0  9993
2 74123  50.0000 288.0000 0000000   0.0000 108.0000 14.33516502    12
CTC2_L_00211025-04
1 74124U 23818EW  26037.47792824  .00000000  00000+0  00000-0 0  9990
2 74124  50.0000 288.0000 0000000   0.0000 198.0000 14.33516502    12
CTC2_L_00211026-01
1 74125U 22289VL  26037.47792824  .00000000  00000+0  00000-0 0  9992
2 74125  50.0000 300.0000 0000000   0.0000 300.0000 14.33516502    13
CTC2_L_00211026-02
1 74126U 25139YN  26037.47792824  .00000000  00000+0  00000-0 0  9990
2 74126  50.0000 300.0000 0000000   0.0000  30.0000 14.33516502    14
CTC2_L_00211026-03
1 74127U 25257JV  26037.47792824  .00000000  00000+0  00000-0 0  9992
2 74127  50.0000 300.0000 0000000   0.0000 120.0000 14.33516502    15
CTC2_L_00211026-04
1 74128U 24721XH  26037.47792824  .00000000  00000+0  00000-0 0  9998
2 74128  50.0000 300.0000 0000000   0.0000 210.0000 14.33516502    16
CTC2_L_00211027-01
1 74129U 25419RS  26037.47792824  .00000000  00000+0  00000-0 0  9994
2 74129  50.0000 312.0000 0000000   0.0000 312.0000 14.33516502    13
CTC2_L_00211027-02
1 74130U 22921HL  26037.47792824  .00000000  00000+0  00000-0 0  9991
2 74130  50.0000 312.0000 0000000   0.0000  42.0000 14.33516502    15
CTC2_L_00211027-03
1 74131U 26248XH  26037.47792824  .00000000  00000+0  00000-0 0  9998
2 74131  50.0000 312.0000 0000000   0.0000 132.0000 14.33516502    16
CTC2_L_00211027-04
1 74132U 25609WS  26037.47792824  .00000000  00000+0  00000-0 0  9999
2 74132  50.0000 312.0000 0000000   0.0000 222.0000 14.33516502    17
CTC2_L_00211028-01
1 74133U 22740DU  26037.47792824  .00000000  00000+0  00000-0 0  9993
2 74133  50.0000 324.0000 0000000   0.0000 324.0000 14.33516502    14
CTC2_L_00211028-02
1 74134U 24889OI  26037.47792824  .00000000  00000+0  00000-0 0  9990
2 74134  50.0000 324.0000 0000000   0.0000  54.0000 14.33516502    15
CTC2_L_00211028-03
1 74135U 23828CP  26037.47792824  .00000000  00000+0  00000-0 0  9993
2 74135  50.0000 324.0000 0000000   0.0000 144.0000 14.33516502    16
CTC2_L_00211028-04
1 74136U 22335NW  26037.47792824  .00000000  00000+0  00000-0 0  9996
2 74136  50.0000 324.0000 0000000   0.0000 234.0000 14.33516502    17
CTC2_L_00211029-01
1 74137U 25747XV  26037.47792824  .00000000  00000+0  00000-0 0  9997
2 74137  50.0000 336.0000 0000000   0.0000 336.0000 14.33516502    14
CTC2_L_00211029-02
1 74138U 23645XP  26037.47792824  .00000000  00000+0  00000-0 0  9993
2 74138  50.0000 336.0000 0000000   0.0000  66.0000 14.33516502    15
CTC2_L_00211029-03
1 74139U 24198RE  26037.47792824  .00000000  00000+0  00000-0 0  9998
2 74139  50.0000 336.0000 0000000   0.0000 156.0000 14.33516502    16
CTC2_L_00211029-04
1 74140U 25606VA  26037.47792824  .00000000  00000+0  00000-0 0  9995
2 74140  50.0000 336.0000 0000000   0.0000 246.0000 14.33516502    18
CTC2_L_00211030-01
1 74141U 25052VA  26037.47792824  .00000000  00000+0  00000-0 0  9991
2 74141  50.0000 348.0000 0000000   0.0000 348.0000 14.33516502    15
CTC2_L_00211030-02
1 74142U 22898KE  26037.47792824  .00000000  00000+0  00000-0 0  9997
2 74142  50.0000 348.0000 0000000   0.0000  78.0000 14.33516502    16
CTC2_L_00211030-03
1 74143U 24063NH  26037.47792824  .00000000  00000+0  00000-0 0  9994
2 74143  50.0000 348.0000 0000000   0.0000 168.0000 14.33516502    17
CTC2_L_00211030-04
1 74144U 26109ZS  26037.47792824  .00000000  00000+0  00000-0 0  9998
2 74144  50.0000 348.0000 0000000   0.0000 258.0000 14.33516502    18
